DMSP 5D-3 F16 (USA 172) 
1 28054U 03048A   26198.94550009 -.00000056  00000+0 -56884-5 0  9990
2 28054  98.9897 222.9762 0008045  64.3895  50.3374 14.14484741173835
METEOSAT-9 (MSG-2)      
1 28912U 05049B   26198.97025537  .00000112  00000+0  00000+0 0  9996
2 28912   9.4295  53.8604 0002327 357.3111 279.5684  1.00273580  7301
DMSP 5D-3 F17 (USA 191) 
1 29522U 06050A   26198.92906218 -.00000042  00000+0  69562-6 0  9994
2 29522  98.7388 204.8713 0009565 334.7518  25.3187 14.14996183 16779
FENGYUN 3A              
1 32958U 08026A   26198.84856578  .00000019  00000+0  29377-4 0  9991
2 32958  98.6886 139.1091 0009573  45.0358 315.1593 14.19576787939752
EWS-G3 (GOES 14)        
1 35491U 09033A   26198.93387412 -.00000369  00000+0  00000+0 0  9997
2 35491   1.7672  82.6590 0002022  39.6458 272.9884  1.00096891  6895
DMSP 5D-3 F18 (USA 210) 
1 35951U 09057A   26198.90236521  .00000170  00000+0  11106-3 0  9997
2 35951  98.9058 179.6080 0011389 157.9988 202.1676 14.14912881863936
EWS-G2 (GOES 15)        
1 36411U 10008A   26198.92200073  .00000013  00000+0  00000+0 0  9995
2 36411   1.3604  82.4294 0005329  53.9198 194.5823  1.00268981 59948
COMS 1                  
1 36744U 10032A   26198.47248728 -.00000240  00000+0  00000+0 0  9993
2 36744   4.8812  74.9910 0011288  15.0272 328.3763  0.99167397 51386
FENGYUN 3B              
1 37214U 10059A   26199.00614825 -.00000016  00000+0  14944-4 0  9998
2 37214  98.9599 245.1487 0023175  98.9820  15.8292 14.14846780811788
SUOMI NPP               
1 37849U 11061A   26198.93143411  .00000031  00000+0  35640-4 0  9997
2 37849  98.7955 139.5986 0000876 200.3898 159.7243 14.19522904762809
METEOSAT-10 (MSG-3)     
1 38552U 12035B   26198.83817087 -.00000018  00000+0  00000+0 0  9990
2 38552   4.7426  60.8694 0001274  17.0154 159.5481  1.00271611 51168
METOP-B                 
1 38771U 12049A   26198.95041706  .00000040  00000+0  37966-4 0  9998
2 38771  98.6488 249.8333 0001172 239.8785 120.2276 14.21446852717637
INSAT-3D                
1 39216U 13038B   26198.86385620 -.00000349  00000+0  00000+0 0  9995
2 39216   2.0035  82.1515 0000576  70.7495 223.2253  1.00267513 47381
FENGYUN 3C              
1 39260U 13052A   26198.92806043  .00000007  00000+0  24874-4 0  9994
2 39260  98.5001 171.3949 0013566 297.4722  62.5073 14.15761113662910
METEOR-M 2              
1 40069U 14037A   26198.90594881  .00000139  00000+0  82676-4 0  9999
2 40069  98.5135 173.5600 0004984 317.5933  42.4859 14.21470276623681
HIMAWARI-8              
1 40267U 14060A   26198.93734081 -.00000284  00000+0  00000+0 0  9994
2 40267   0.0151  34.0429 0001171 131.0114 248.7996  1.00270766 43068
FENGYUN 2G              
1 40367U 14090A   26198.96508066 -.00000313  00000+0  00000+0 0  9996
2 40367   5.7148  72.4427 0004132 173.7948 136.3644  1.00279731 42308
METEOSAT-11 (MSG-4)     
1 40732U 15034A   26198.92656851  .00000052  00000+0  00000+0 0  9992
2 40732   3.2755  70.9121 0002103 354.8594 212.7858  1.00272713  7524
ELEKTRO-L 2             
1 41105U 15074A   26198.90664448 -.00000129  00000+0  00000+0 0  9996
2 41105   6.7694  70.1443 0000976 217.4447 320.0214  1.00272057 38811
SENTINEL-3A             
1 41335U 16011A   26198.93343549  .00000040  00000+0  34744-4 0  9990
2 41335  98.6235 265.8732 0001334  89.4056 270.7277 14.26740239542446
INSAT-3DR               
1 41752U 16054A   26198.92416741 -.00000085  00000+0  00000+0 0  9997
2 41752   0.0768  88.9555 0010462 180.8222  72.6451  1.00271041 36121
HIMAWARI-9              
1 41836U 16064A   26198.65225385 -.00000285  00000+0  00000+0 0  9995
2 41836   0.0291 243.3409 0002095 291.2307 136.4215  1.00269723 35517
GOES 16                 
1 41866U 16071A   26198.88872965 -.00000100  00000+0  00000+0 0  9999
2 41866   0.4110  85.4588 0000569  84.6286 340.8550  1.00271270 35413
FENGYUN 4A              
1 41882U 16077A   26198.93396079 -.00000367  00000+0  00000+0 0  9991
2 41882   2.3991  79.9338 0008416 159.7462 155.9949  1.00266719 35238
CYGFM05                 
1 41884U 16078A   26198.94916846  .00015584  00000+0  20178-3 0  9993
2 41884  34.9569  56.6818 0005502  66.5453 293.5850 15.57940504533551
CYGFM04                 
1 41885U 16078B   26198.88405001  .00021075  00000+0  22258-3 0  9996
2 41885  34.9329  23.1976 0004121 116.7383 243.3765 15.63194228533803
CYGFM02                 
1 41886U 16078C   26198.88671311  .00025902  00000+0  23946-3 0  9994
2 41886  34.9411  16.7705 0004866 119.2555 240.8659 15.66500155533985
CYGFM01                 
1 41887U 16078D   26198.92401583  .00016499  00000+0  20780-3 0  9996
2 41887  34.9400  57.6492 0005430  58.6264 301.4992 15.58661886533504
CYGFM08                 
1 41888U 16078E   26198.89256527  .00019797  00000+0  22284-3 0  9994
2 41888  34.9435  36.5936 0005969  98.8745 261.2656 15.61561521533777
CYGFM07                 
1 41890U 16078G   26198.84969065  .00019684  00000+0  22073-3 0  9991
2 41890  34.9452  25.1938 0004529 116.3837 243.7354 15.61669253533797
CYGFM03                 
1 41891U 16078H   26198.88483737  .00019812  00000+0  22227-3 0  9997
2 41891  34.9407  26.8882 0004306  97.8498 262.2717 15.61657157533770
